[{"OBJECT_NAME":"STARLINK-34374","OBJECT_ID":"2025-123T","EPOCH":"2025-12-20T11:51:14.534208","MEAN_MOTION":14.98335081,"ECCENTRICITY":0.00035151,"INCLINATION":70.0017,"RA_OF_ASC_NODE":34.2184,"ARG_OF_PERICENTER":271.1625,"MEAN_ANOMALY":88.9132,"EPHEMERIS_TYPE":0,"CLASSIFICATION_TYPE":"U","NORAD_CAT_ID":64308,"ELEMENT_SET_NO":999,"REV_AT_EPOCH":2975,"BSTAR":0.00020917927,"MEAN_MOTION_DOT":2.404e-5,"MEAN_MOTION_DDOT":0},{"OBJECT_NAME":"STARLINK-34370","OBJECT_ID":"2025-123U","EPOCH":"2025-12-20T11:39:13.324896","MEAN_MOTION":14.98335912,"ECCENTRICITY":0.00032976,"INCLINATION":70.0015,"RA_OF_ASC_NODE":34.1872,"ARG_OF_PERICENTER":272.6654,"MEAN_ANOMALY":87.4128,"EPHEMERIS_TYPE":0,"CLASSIFICATION_TYPE":"U","NORAD_CAT_ID":64309,"ELEMENT_SET_NO":999,"REV_AT_EPOCH":2975,"BSTAR":0.00021188229,"MEAN_MOTION_DOT":2.436e-5,"MEAN_MOTION_DDOT":0},{"OBJECT_NAME":"STARLINK-34357","OBJECT_ID":"2025-123V","EPOCH":"2025-12-20T12:09:02.719872","MEAN_MOTION":14.98382161,"ECCENTRICITY":0.00034732,"INCLINATION":70.0014,"RA_OF_ASC_NODE":34.268,"ARG_OF_PERICENTER":259.7688,"MEAN_ANOMALY":100.308,"EPHEMERIS_TYPE":0,"CLASSIFICATION_TYPE":"U","NORAD_CAT_ID":64310,"ELEMENT_SET_NO":999,"REV_AT_EPOCH":2975,"BSTAR":-0.0016840261,"MEAN_MOTION_DOT":-0.00020157,"MEAN_MOTION_DDOT":0},{"OBJECT_NAME":"STARLINK-34368","OBJECT_ID":"2025-123W","EPOCH":"2025-12-20T07:08:36.612672","MEAN_MOTION":14.98338771,"ECCENTRICITY":0.00036563,"INCLINATION":70.0027,"RA_OF_ASC_NODE":34.7327,"ARG_OF_PERICENTER":269.8229,"MEAN_ANOMALY":90.2511,"EPHEMERIS_TYPE":0,"CLASSIFICATION_TYPE":"U","NORAD_CAT_ID":64311,"ELEMENT_SET_NO":999,"REV_AT_EPOCH":2972,"BSTAR":0.00036728771,"MEAN_MOTION_DOT":4.293e-5,"MEAN_MOTION_DDOT":0},{"OBJECT_NAME":"STARLINK-34384","OBJECT_ID":"2025-123X","EPOCH":"2025-12-20T11:44:59.684352","MEAN_MOTION":14.98336749,"ECCENTRICITY":0.00030979,"INCLINATION":70.002,"RA_OF_ASC_NODE":34.208,"ARG_OF_PERICENTER":264.6459,"MEAN_ANOMALY":95.4346,"EPHEMERIS_TYPE":0,"CLASSIFICATION_TYPE":"U","NORAD_CAT_ID":64312,"ELEMENT_SET_NO":999,"REV_AT_EPOCH":2975,"BSTAR":0.00022614471,"MEAN_MOTION_DOT":2.607e-5,"MEAN_MOTION_DDOT":0},{"OBJECT_NAME":"STARLINK-34358","OBJECT_ID":"2025-123Y","EPOCH":"2025-12-19T09:54:49.499424","MEAN_MOTION":14.98336765,"ECCENTRICITY":0.0003479,"INCLINATION":70.0014,"RA_OF_ASC_NODE":36.8702,"ARG_OF_PERICENTER":269.776,"MEAN_ANOMALY":90.3,"EPHEMERIS_TYPE":0,"CLASSIFICATION_TYPE":"U","NORAD_CAT_ID":64313,"ELEMENT_SET_NO":999,"REV_AT_EPOCH":2959,"BSTAR":0.00029078,"MEAN_MOTION_DOT":3.379e-5,"MEAN_MOTION_DDOT":0},{"OBJECT_NAME":"STARLINK-34354","OBJECT_ID":"2025-123Z","EPOCH":"2025-12-20T12:57:03.085920","MEAN_MOTION":14.98385605,"ECCENTRICITY":0.00035636,"INCLINATION":70.0012,"RA_OF_ASC_NODE":33.979,"ARG_OF_PERICENTER":277.365,"MEAN_ANOMALY":82.7104,"EPHEMERIS_TYPE":0,"CLASSIFICATION_TYPE":"U","NORAD_CAT_ID":64314,"ELEMENT_SET_NO":999,"REV_AT_EPOCH":2976,"BSTAR":0.001286372,"MEAN_MOTION_DOT":0.00015312,"MEAN_MOTION_DDOT":0},{"OBJECT_NAME":"STARLINK-34387","OBJECT_ID":"2025-123AA","EPOCH":"2025-12-20T12:45:05.857920","MEAN_MOTION":14.98330914,"ECCENTRICITY":0.0003098,"INCLINATION":70.0022,"RA_OF_ASC_NODE":33.9494,"ARG_OF_PERICENTER":272.3578,"MEAN_ANOMALY":87.7226,"EPHEMERIS_TYPE":0,"CLASSIFICATION_TYPE":"U","NORAD_CAT_ID":64315,"ELEMENT_SET_NO":999,"REV_AT_EPOCH":2976,"BSTAR":0.00081924174,"MEAN_MOTION_DOT":9.696e-5,"MEAN_MOTION_DDOT":0},{"OBJECT_NAME":"STARLINK-33590","OBJECT_ID":"2025-123AB","EPOCH":"2025-12-20T12:57:18.845280","MEAN_MOTION":14.98339782,"ECCENTRICITY":0.00032841,"INCLINATION":70.0013,"RA_OF_ASC_NODE":33.9721,"ARG_OF_PERICENTER":284.2012,"MEAN_ANOMALY":75.8782,"EPHEMERIS_TYPE":0,"CLASSIFICATION_TYPE":"U","NORAD_CAT_ID":64316,"ELEMENT_SET_NO":999,"REV_AT_EPOCH":2976,"BSTAR":-0.00075034265,"MEAN_MOTION_DOT":-9.037e-5,"MEAN_MOTION_DDOT":0},{"OBJECT_NAME":"STARLINK-11736 [DTC]","OBJECT_ID":"2025-124A","EPOCH":"2025-12-19T11:08:02.846112","MEAN_MOTION":15.70843254,"ECCENTRICITY":0.0001474,"INCLINATION":42.9986,"RA_OF_ASC_NODE":153.0889,"ARG_OF_PERICENTER":261.0383,"MEAN_ANOMALY":99.0317,"EPHEMERIS_TYPE":0,"CLASSIFICATION_TYPE":"U","NORAD_CAT_ID":64317,"ELEMENT_SET_NO":999,"REV_AT_EPOCH":3021,"BSTAR":0.001778,"MEAN_MOTION_DOT":0.00234275,"MEAN_MOTION_DDOT":0},{"OBJECT_NAME":"STARLINK-11673 [DTC]","OBJECT_ID":"2025-124B","EPOCH":"2025-12-20T11:02:25.570752","MEAN_MOTION":15.70972701,"ECCENTRICITY":0.00018849,"INCLINATION":42.9988,"RA_OF_ASC_NODE":146.7858,"ARG_OF_PERICENTER":294.8355,"MEAN_ANOMALY":65.2317,"EPHEMERIS_TYPE":0,"CLASSIFICATION_TYPE":"U","NORAD_CAT_ID":64318,"ELEMENT_SET_NO":999,"REV_AT_EPOCH":3037,"BSTAR":0.0012131712,"MEAN_MOTION_DOT":0.00159121,"MEAN_MOTION_DDOT":0},{"OBJECT_NAME":"STARLINK-11671 [DTC]","OBJECT_ID":"2025-124C","EPOCH":"2025-12-20T10:47:07.924128","MEAN_MOTION":15.70955641,"ECCENTRICITY":0.0001677,"INCLINATION":42.9994,"RA_OF_ASC_NODE":146.6996,"ARG_OF_PERICENTER":253.3419,"MEAN_ANOMALY":106.7265,"EPHEMERIS_TYPE":0,"CLASSIFICATION_TYPE":"U","NORAD_CAT_ID":64319,"ELEMENT_SET_NO":999,"REV_AT_EPOCH":3037,"BSTAR":0.0016428192,"MEAN_MOTION_DOT":0.00216995,"MEAN_MOTION_DDOT":0},{"OBJECT_NAME":"STARLINK-11594 [DTC]","OBJECT_ID":"2025-124D","EPOCH":"2025-12-20T10:09:05.592096","MEAN_MOTION":15.70931904,"ECCENTRICITY":0.00029496,"INCLINATION":43.0011,"RA_OF_ASC_NODE":147.3825,"ARG_OF_PERICENTER":293.6183,"MEAN_ANOMALY":66.4375,"EPHEMERIS_TYPE":0,"CLASSIFICATION_TYPE":"U","NORAD_CAT_ID":64320,"ELEMENT_SET_NO":999,"REV_AT_EPOCH":3036,"BSTAR":0.00085067838,"MEAN_MOTION_DOT":0.00110609,"MEAN_MOTION_DDOT":0},{"OBJECT_NAME":"STARLINK-11596 [DTC]","OBJECT_ID":"2025-124E","EPOCH":"2025-12-20T11:25:21.429408","MEAN_MOTION":15.70902764,"ECCENTRICITY":0.00017068,"INCLINATION":42.9998,"RA_OF_ASC_NODE":146.912,"ARG_OF_PERICENTER":282.4131,"MEAN_ANOMALY":77.6546,"EPHEMERIS_TYPE":0,"CLASSIFICATION_TYPE":"U","NORAD_CAT_ID":64321,"ELEMENT_SET_NO":999,"REV_AT_EPOCH":3037,"BSTAR":0.0015628374,"MEAN_MOTION_DOT":0.00205667,"MEAN_MOTION_DDOT":0},{"OBJECT_NAME":"STARLINK-11747 [DTC]","OBJECT_ID":"2025-124F","EPOCH":"2025-12-20T03:32:16.753632","MEAN_MOTION":15.70858533,"ECCENTRICITY":7.597e-5,"INCLINATION":42.9976,"RA_OF_ASC_NODE":148.7444,"ARG_OF_PERICENTER":311.7241,"MEAN_ANOMALY":48.3561,"EPHEMERIS_TYPE":0,"CLASSIFICATION_TYPE":"U","NORAD_CAT_ID":64322,"ELEMENT_SET_NO":999,"REV_AT_EPOCH":3032,"BSTAR":0.0011453839,"MEAN_MOTION_DOT":0.00149304,"MEAN_MOTION_DDOT":0},{"OBJECT_NAME":"STARLINK-11728 [DTC]","OBJECT_ID":"2025-124G","EPOCH":"2025-12-19T19:08:35.797056","MEAN_MOTION":15.70905311,"ECCENTRICITY":0.00021025,"INCLINATION":42.9994,"RA_OF_ASC_NODE":150.4021,"ARG_OF_PERICENTER":288.6252,"MEAN_ANOMALY":71.4387,"EPHEMERIS_TYPE":0,"CLASSIFICATION_TYPE":"U","NORAD_CAT_ID":64323,"ELEMENT_SET_NO":999,"REV_AT_EPOCH":3027,"BSTAR":0.0018083403,"MEAN_MOTION_DOT":0.00239041,"MEAN_MOTION_DDOT":0},{"OBJECT_NAME":"STARLINK-11696 [DTC]","OBJECT_ID":"2025-124H","EPOCH":"2025-12-19T17:52:19.583904","MEAN_MOTION":15.70857526,"ECCENTRICITY":0.00015443,"INCLINATION":42.9997,"RA_OF_ASC_NODE":150.8692,"ARG_OF_PERICENTER":272.526,"MEAN_ANOMALY":87.5431,"EPHEMERIS_TYPE":0,"CLASSIFICATION_TYPE":"U","NORAD_CAT_ID":64324,"ELEMENT_SET_NO":999,"REV_AT_EPOCH":3026,"BSTAR":0.0010792713,"MEAN_MOTION_DOT":0.00140505,"MEAN_MOTION_DDOT":0},{"OBJECT_NAME":"STARLINK-11698 [DTC]","OBJECT_ID":"2025-124J","EPOCH":"2025-12-20T10:48:26.491968","MEAN_MOTION":15.70940426,"ECCENTRICITY":0.00016168,"INCLINATION":42.9981,"RA_OF_ASC_NODE":146.7031,"ARG_OF_PERICENTER":247.7664,"MEAN_ANOMALY":112.3032,"EPHEMERIS_TYPE":0,"CLASSIFICATION_TYPE":"U","NORAD_CAT_ID":64325,"ELEMENT_SET_NO":999,"REV_AT_EPOCH":3037,"BSTAR":0.0013428222,"MEAN_MOTION_DOT":0.001763,"MEAN_MOTION_DDOT":0},{"OBJECT_NAME":"STARLINK-11678 [DTC]","OBJECT_ID":"2025-124K","EPOCH":"2025-12-20T11:17:42.666144","MEAN_MOTION":15.7083727,"ECCENTRICITY":0.00017725,"INCLINATION":42.9997,"RA_OF_ASC_NODE":146.8668,"ARG_OF_PERICENTER":268.167,"MEAN_ANOMALY":91.8994,"EPHEMERIS_TYPE":0,"CLASSIFICATION_TYPE":"U","NORAD_CAT_ID":64326,"ELEMENT_SET_NO":999,"REV_AT_EPOCH":3037,"BSTAR":4.4752061e-5,"MEAN_MOTION_DOT":5.297e-5,"MEAN_MOTION_DDOT":0},{"OBJECT_NAME":"STARLINK-11674 [DTC]","OBJECT_ID":"2025-124L","EPOCH":"2025-12-20T10:31:50.313792","MEAN_MOTION":15.70963133,"ECCENTRICITY":0.00020623,"INCLINATION":42.9992,"RA_OF_ASC_NODE":146.6099,"ARG_OF_PERICENTER":261.5029,"MEAN_ANOMALY":98.5605,"EPHEMERIS_TYPE":0,"CLASSIFICATION_TYPE":"U","NORAD_CAT_ID":64327,"ELEMENT_SET_NO":999,"REV_AT_EPOCH":3037,"BSTAR":0.0020409577,"MEAN_MOTION_DOT":0.00271575,"MEAN_MOTION_DDOT":0},{"OBJECT_NAME":"STARLINK-11707 [DTC]","OBJECT_ID":"2025-124M","EPOCH":"2025-12-20T13:57:53.819424","MEAN_MOTION":15.7103379,"ECCENTRICITY":0.00026591,"INCLINATION":42.9976,"RA_OF_ASC_NODE":145.9734,"ARG_OF_PERICENTER":309.6178,"MEAN_ANOMALY":50.4455,"EPHEMERIS_TYPE":0,"CLASSIFICATION_TYPE":"U","NORAD_CAT_ID":64328,"ELEMENT_SET_NO":999,"REV_AT_EPOCH":3039,"BSTAR":0.0013921518,"MEAN_MOTION_DOT":0.00183689,"MEAN_MOTION_DDOT":0},{"OBJECT_NAME":"STARLINK-11734 [DTC]","OBJECT_ID":"2025-124N","EPOCH":"2025-12-20T10:16:32.723328","MEAN_MOTION":15.71036724,"ECCENTRICITY":0.00020131,"INCLINATION":42.9967,"RA_OF_ASC_NODE":146.5223,"ARG_OF_PERICENTER":233.0335,"MEAN_ANOMALY":127.0349,"EPHEMERIS_TYPE":0,"CLASSIFICATION_TYPE":"U","NORAD_CAT_ID":64329,"ELEMENT_SET_NO":999,"REV_AT_EPOCH":3037,"BSTAR":0.0012573531,"MEAN_MOTION_DOT":0.00165507,"MEAN_MOTION_DDOT":0},{"OBJECT_NAME":"STARLINK-34252","OBJECT_ID":"2025-124P","EPOCH":"2025-12-19T22:51:36.216864","MEAN_MOTION":15.27567194,"ECCENTRICITY":0.0001786,"INCLINATION":42.9995,"RA_OF_ASC_NODE":212.2038,"ARG_OF_PERICENTER":276.3891,"MEAN_ANOMALY":83.6757,"EPHEMERIS_TYPE":0,"CLASSIFICATION_TYPE":"U","NORAD_CAT_ID":64330,"ELEMENT_SET_NO":999,"REV_AT_EPOCH":2958,"BSTAR":0.00083533,"MEAN_MOTION_DOT":0.00022787,"MEAN_MOTION_DDOT":0}]
